APRIZESAT 2             
1 28366U 04025A   26197.92590759  .00000083  00000+0  38641-4 0  9993
2 28366  98.1044   2.2266 0106048 159.6575 200.8887 14.38048120155913
SAUDICOMSAT 1           
1 28369U 04025D   26198.26430642  .00000122  00000+0  39416-4 0  9993
2 28369  98.5778 209.2084 0030933 292.3165  67.4754 14.55494336168502
SAUDICOMSAT 2           
1 28370U 04025E   26197.93588657  .00000085  00000+0  33986-4 0  9992
2 28370  98.6643 211.0233 0055736 168.4193 191.8297 14.49994861164416
APRIZESAT 1             
1 28372U 04025G   26197.99961297  .00000101  00000+0  36940-4 0  9997
2 28372  98.6310 209.5370 0045738  65.3206 295.2741 14.51792616166236
NANOSAT-1               
1 28493U 04049B   26198.31860075  .00000453  00000+0  66890-4 0  9993
2 28493  98.2313 335.7233 0003965 177.2336 182.8898 14.80212972159906
SAUDICOMSAT 7           
1 31119U 07012C   26197.86885477  .00000228  00000+0  50058-4 0  9996
2 31119  98.3799 172.6113 0057009 103.1667 257.5906 14.66137543 26785
SAUDICOMSAT 6           
1 31121U 07012E   26197.84992488  .00000157  00000+0  40172-4 0  9995
2 31121  98.4118 165.9222 0070586 233.8607 125.6048 14.62585256 24526
SAUDICOMSAT 5           
1 31124U 07012H   26197.86884660  .00000289  00000+0  58563-4 0  9991
2 31124  98.3511 173.3524 0048135  33.6714 326.7533 14.68193333 27953
SAUDICOMSAT 3           
1 31125U 07012J   26197.91389847  .00000336  00000+0  63382-4 0  9993
2 31125  98.3165 173.9448 0038160 319.6978  40.1400 14.70751121 29192
SAUDICOMSAT 4           
1 31127U 07012L   26197.87488481  .00000189  00000+0  44404-4 0  9994
2 31127  98.4004 171.0543 0063689 164.5036 195.8136 14.64536156 25639
APRIZESAT 4             
1 35684U 09041D   26197.99411073  .00000350  00000+0  48546-4 0  9997
2 35684  98.1404 273.9074 0042339 223.5589 136.2279 14.83915185915786
APRIZESAT 3             
1 35686U 09041F   26197.99117614  .00000583  00000+0  55652-4 0  9997
2 35686  98.2104 352.6500 0060743 329.9453  29.8285 14.96313668920833
S-NET D                 
1 43186U 18014G   26198.14822276  .00002596  00000+0  13507-3 0  9994
2 43186  97.5329 102.7529 0006204 276.3149  83.7377 15.16927696463302
S-NET B                 
1 43187U 18014H   26198.16026557  .00002487  00000+0  12966-3 0  9992
2 43187  97.5334 102.7523 0006816 270.2516  89.7936 15.16897227463306
S-NET A                 
1 43188U 18014J   26198.14693506  .00002611  00000+0  13580-3 0  9997
2 43188  97.5343 102.9538 0006713 271.2106  88.8358 15.16936089463305
S-NET C                 
1 43189U 18014K   26198.16430318  .00002392  00000+0  12482-3 0  9996
2 43189  97.5362 103.0501 0008082 261.9930  98.0386 15.16888253461852
SALSAT                  
1 46495U 20068K   26197.96833821  .00003909  00000+0  13663-3 0  9991
2 46495  97.8858 202.8562 0009384 186.4299 173.6821 15.30186484319914
OOV-CUBE (TUBSAT-30)    
1 60240U 24128F   26198.06347753  .00000952  00000+0  85234-4 0  9991
2 60240  61.9940 121.3870 0040878 140.4347 219.9741 15.02878305110605
LPNTSAT-001 (IOD-1)     
1 68408U 26065A   26197.59623333  .00001320  00000+0  66800-4 0  9993
2 68408  97.3978  77.4803 0014622 260.9687  98.9893 15.18672911 16726
CHUANG XIN 26 (CX-26)   
1 69972U 26158A   26194.51442212 -.00000212  00000+0 -21871-4 0  9997
2 69972  49.9860 287.5119 0004887 294.2352  65.8050 14.25122238   462
